[{"OBJECT_NAME":"ONEWEB-0145","OBJECT_ID":"2020-100AK","EPOCH":"2026-03-09T18:30:59.951808","MEAN_MOTION":13.124412,"ECCENTRICITY":0.00018883,"INCLINATION":87.9002,"RA_OF_ASC_NODE":10.4058,"ARG_OF_PERICENTER":79.1101,"MEAN_ANOMALY":281.024,"EPHEMERIS_TYPE":0,"CLASSIFICATION_TYPE":"U","NORAD_CAT_ID":47291,"ELEMENT_SET_NO":999,"REV_AT_EPOCH":25172,"BSTAR":-0.00056074959,"MEAN_MOTION_DOT":-1.89e-6,"MEAN_MOTION_DDOT":0},{"OBJECT_NAME":"FENGYUN 1C DEB","OBJECT_ID":"1999-025BGR","EPOCH":"2026-03-09T07:21:57.697056","MEAN_MOTION":13.06693164,"ECCENTRICITY":0.04985611,"INCLINATION":98.5699,"RA_OF_ASC_NODE":198.5734,"ARG_OF_PERICENTER":344.7367,"MEAN_ANOMALY":13.9161,"EPHEMERIS_TYPE":0,"CLASSIFICATION_TYPE":"U","NORAD_CAT_ID":31095,"ELEMENT_SET_NO":999,"REV_AT_EPOCH":90578,"BSTAR":-0.00065253443,"MEAN_MOTION_DOT":-4.28e-6,"MEAN_MOTION_DDOT":0}]
